[
    {
        "Altitude(m)": 557154.2425296871,
        "Argument of Periapsis(deg)": 0.033114955553567506,
        "Eccentricity": 0.0,
        "Inclination(deg)": 53.0,
        "Latitude(deg)": 40.96787203411768,
        "Longitude(deg)": 0.41538734204023897,
        "Mean Anomaly(deg)": -234.99653566211205,
        "RAAN(deg)": 324.95071684264,
        "Satellite Name": "Starlink Shell 1 1434",
        "Satellite Number": 1434,
        "Semi-Major Axis(m)": 6931778.249405717,
        "Time(s)": 950
    },
    {
        "Altitude(m)": 557071.9415232074,
        "Argument of Periapsis(deg)": 0.03346353403307874,
        "Eccentricity": 0.0,
        "Inclination(deg)": 53.0,
        "Latitude(deg)": 40.584908014200344,
        "Longitude(deg)": 1.0290357869659006,
        "Mean Anomaly(deg)": -234.36970445855536,
        "RAAN(deg)": 324.9501980725626,
        "Satellite Name": "Starlink Shell 1 1434",
        "Satellite Number": 1434,
        "Semi-Major Axis(m)": 6931778.249405717,
        "Time(s)": 960
    },
    {
        "Altitude(m)": 556989.3255636619,
        "Argument of Periapsis(deg)": 0.03381211251258998,
        "Eccentricity": 0.0,
        "Inclination(deg)": 53.0,
        "Latitude(deg)": 40.19824737905587,
        "Longitude(deg)": 1.6352274288849997,
        "Mean Anomaly(deg)": -233.74287325499859,
        "RAAN(deg)": 324.94967930248515,
        "Satellite Name": "Starlink Shell 1 1434",
        "Satellite Number": 1434,
        "Semi-Major Axis(m)": 6931778.249405717,
        "Time(s)": 970
    },
    {
        "Altitude(m)": 556906.4480835303,
        "Argument of Periapsis(deg)": 0.034160690992101214,
        "Eccentricity": 0.0,
        "Inclination(deg)": 53.0,
        "Latitude(deg)": 39.80798028076417,
        "Longitude(deg)": 2.234078284327246,
        "Mean Anomaly(deg)": -233.1160420514419,
        "RAAN(deg)": 324.94916053240763,
        "Satellite Name": "Starlink Shell 1 1434",
        "Satellite Number": 1434,
        "Semi-Major Axis(m)": 6931778.249405717,
        "Time(s)": 980
    },
    {
        "Altitude(m)": 556823.3628582981,
        "Argument of Periapsis(deg)": 0.034509269471612446,
        "Eccentricity": 0.0,
        "Inclination(deg)": 53.0,
        "Latitude(deg)": 39.414195026996154,
        "Longitude(deg)": 2.8257061251775935,
        "Mean Anomaly(deg)": -232.4892108478852,
        "RAAN(deg)": 324.94864176233017,
        "Satellite Name": "Starlink Shell 1 1434",
        "Satellite Number": 1434,
        "Semi-Major Axis(m)": 6931778.249405717,
        "Time(s)": 990
    }
]